ASTRA 2G                
1 40364U 14089A   22231.07708053  .00000143  00000+0  00000+0 0  9995
2 40364   0.0451 312.9528 0003391 135.2128 295.1817  1.00267393 28001
SES-9                   
1 41380U 16013A   22230.83697088 -.00000352  00000+0  00000+0 0  9994
2 41380   0.0503 286.2162 0001776 196.4505 254.1067  1.00271799 23415
SES-10                  
1 42432U 17017A   22230.84291334 -.00000279  00000+0  00000+0 0  9991
2 42432   0.0164  92.2812 0002705  58.2289  53.1890  1.00269599 19726
SES-15                  
1 42709U 17026A   22231.18615615  .00000053  00000+0  00000+0 0  9997
2 42709   0.0275 349.1895 0000677 198.4004  77.7781  1.00276235 20165
SES-11 (ECHOSTAR 105)   
1 42967U 17063A   22230.69156981 -.00000096  00000+0  00000+0 0  9993
2 42967   0.0127  97.9231 0002534  61.3345 311.7602  1.00271937 17702
SES-14                  
1 43175U 18012B   22230.70325466 -.00000285  00000+0  00000+0 0  9998
2 43175   0.0008  94.4527 0000849  61.4491  16.7890  1.00271849 17031
O3B FM15                
1 43231U 18024A   22230.85773140 -.00000027  00000+0  00000+0 0  9990
2 43231   0.0462   7.8872 0002890 142.3171 209.8102  5.00116032 81062
O3B FM16                
1 43232U 18024B   22230.51133181 -.00000027  00000+0  00000+0 0  9999
2 43232   0.0421   8.7611 0002868 141.7348 209.5183  5.00115901 80972
O3B FM14                
1 43233U 18024C   22230.75082389 -.00000027  00000+0  00000+0 0  9999
2 43233   0.0407   8.0986 0002682 144.0716 207.8422  5.00115323 80991
O3B FM13                
1 43234U 18024D   22230.80432208 -.00000027  00000+0  00000+0 0  9995
2 43234   0.0495  34.0652 0003575 125.1042 200.8433  5.00115017 81101
SES-12                  
1 43488U 18049A   22231.04563131 -.00000276  00000+0  00000+0 0  9996
2 43488   0.0151  65.4620 0001422 172.3701 200.9562  1.00271480 15394
O3B FM20                
1 44112U 19020A   22229.97798228 -.00000027  00000+0  00000+0 0  9991
2 44112   0.0496   7.5465 0002937 149.1228 203.3418  5.00115447 61575
O3B FM19                
1 44113U 19020B   22230.40453929 -.00000027  00000+0  00000+0 0  9998
2 44113   0.0589  20.9466 0001772 135.1655 203.8941  5.00115008 61461
O3B FM17                
1 44114U 19020C   22230.28518860 -.00000027  00000+0  00000+0 0  9991
2 44114   0.0413 344.4070 0003001 166.3303 209.2774  5.00115593 61548
O3B FM18                
1 44115U 19020D   22230.63150023 -.00000027  00000+0  00000+0 0  9994
2 44115   0.0498   7.9763 0002869 139.6440 212.3953  5.00115768 61681
SES-17                  
1 49332U 21095A   22230.84282615 -.00000279  00000+0  00000+0 0  9990
2 49332   0.0134 110.1189 0001052  46.1876  47.1766  1.00270934  3822
SES-22                  
1 52933U 22071A   22230.63035347  .00000081  00000+0  00000+0 0  9991
2 52933   0.0446 281.1689 0002244 246.4827 251.2203  1.00272091   522
