[{"OBJECT_NAME":"ASTRA 2G","OBJECT_ID":"2014-089A","EPOCH":"2022-08-19T01:50:59.757792","MEAN_MOTION":1.00267393,"ECCENTRICITY":0.0003391,"INCLINATION":0.0451,"RA_OF_ASC_NODE":312.9528,"ARG_OF_PERICENTER":135.2128,"MEAN_ANOMALY":295.1817,"EPHEMERIS_TYPE":0,"CLASSIFICATION_TYPE":"U","NORAD_CAT_ID":40364,"ELEMENT_SET_NO":999,"REV_AT_EPOCH":2800,"BSTAR":0,"MEAN_MOTION_DOT":1.43e-6,"MEAN_MOTION_DDOT":0},{"OBJECT_NAME":"SES-9","OBJECT_ID":"2016-013A","EPOCH":"2022-08-18T20:05:14.284032","MEAN_MOTION":1.00271799,"ECCENTRICITY":0.0001776,"INCLINATION":0.0503,"RA_OF_ASC_NODE":286.2162,"ARG_OF_PERICENTER":196.4505,"MEAN_ANOMALY":254.1067,"EPHEMERIS_TYPE":0,"CLASSIFICATION_TYPE":"U","NORAD_CAT_ID":41380,"ELEMENT_SET_NO":999,"REV_AT_EPOCH":2341,"BSTAR":0,"MEAN_MOTION_DOT":-3.52e-6,"MEAN_MOTION_DDOT":0},{"OBJECT_NAME":"SES-10","OBJECT_ID":"2017-017A","EPOCH":"2022-08-18T20:13:47.712576","MEAN_MOTION":1.00269599,"ECCENTRICITY":0.0002705,"INCLINATION":0.0164,"RA_OF_ASC_NODE":92.2812,"ARG_OF_PERICENTER":58.2289,"MEAN_ANOMALY":53.189,"EPHEMERIS_TYPE":0,"CLASSIFICATION_TYPE":"U","NORAD_CAT_ID":42432,"ELEMENT_SET_NO":999,"REV_AT_EPOCH":1972,"BSTAR":0,"MEAN_MOTION_DOT":-2.79e-6,"MEAN_MOTION_DDOT":0},{"OBJECT_NAME":"SES-15","OBJECT_ID":"2017-026A","EPOCH":"2022-08-19T04:28:03.891360","MEAN_MOTION":1.00276235,"ECCENTRICITY":6.77e-5,"INCLINATION":0.0275,"RA_OF_ASC_NODE":349.1895,"ARG_OF_PERICENTER":198.4004,"MEAN_ANOMALY":77.7781,"EPHEMERIS_TYPE":0,"CLASSIFICATION_TYPE":"U","NORAD_CAT_ID":42709,"ELEMENT_SET_NO":999,"REV_AT_EPOCH":2016,"BSTAR":0,"MEAN_MOTION_DOT":5.3e-7,"MEAN_MOTION_DDOT":0},{"OBJECT_NAME":"SES-11 (ECHOSTAR 105)","OBJECT_ID":"2017-063A","EPOCH":"2022-08-18T16:35:51.631584","MEAN_MOTION":1.00271937,"ECCENTRICITY":0.0002534,"INCLINATION":0.0127,"RA_OF_ASC_NODE":97.9231,"ARG_OF_PERICENTER":61.3345,"MEAN_ANOMALY":311.7602,"EPHEMERIS_TYPE":0,"CLASSIFICATION_TYPE":"U","NORAD_CAT_ID":42967,"ELEMENT_SET_NO":999,"REV_AT_EPOCH":1770,"BSTAR":0,"MEAN_MOTION_DOT":-9.6e-7,"MEAN_MOTION_DDOT":0},{"OBJECT_NAME":"SES-14","OBJECT_ID":"2018-012B","EPOCH":"2022-08-18T16:52:41.202624","MEAN_MOTION":1.00271849,"ECCENTRICITY":8.49e-5,"INCLINATION":0.0008,"RA_OF_ASC_NODE":94.4527,"ARG_OF_PERICENTER":61.4491,"MEAN_ANOMALY":16.789,"EPHEMERIS_TYPE":0,"CLASSIFICATION_TYPE":"U","NORAD_CAT_ID":43175,"ELEMENT_SET_NO":999,"REV_AT_EPOCH":1703,"BSTAR":0,"MEAN_MOTION_DOT":-2.85e-6,"MEAN_MOTION_DDOT":0},{"OBJECT_NAME":"O3B FM15","OBJECT_ID":"2018-024A","EPOCH":"2022-08-18T20:35:07.992960","MEAN_MOTION":5.00116032,"ECCENTRICITY":0.000289,"INCLINATION":0.0462,"RA_OF_ASC_NODE":7.8872,"ARG_OF_PERICENTER":142.3171,"MEAN_ANOMALY":209.8102,"EPHEMERIS_TYPE":0,"CLASSIFICATION_TYPE":"U","NORAD_CAT_ID":43231,"ELEMENT_SET_NO":999,"REV_AT_EPOCH":8106,"BSTAR":0,"MEAN_MOTION_DOT":-2.7e-7,"MEAN_MOTION_DDOT":0},{"OBJECT_NAME":"O3B FM16","OBJECT_ID":"2018-024B","EPOCH":"2022-08-18T12:16:19.068384","MEAN_MOTION":5.00115901,"ECCENTRICITY":0.0002868,"INCLINATION":0.0421,"RA_OF_ASC_NODE":8.7611,"ARG_OF_PERICENTER":141.7348,"MEAN_ANOMALY":209.5183,"EPHEMERIS_TYPE":0,"CLASSIFICATION_TYPE":"U","NORAD_CAT_ID":43232,"ELEMENT_SET_NO":999,"REV_AT_EPOCH":8097,"BSTAR":0,"MEAN_MOTION_DOT":-2.7e-7,"MEAN_MOTION_DDOT":0},{"OBJECT_NAME":"O3B FM14","OBJECT_ID":"2018-024C","EPOCH":"2022-08-18T18:01:11.184096","MEAN_MOTION":5.00115323,"ECCENTRICITY":0.0002682,"INCLINATION":0.0407,"RA_OF_ASC_NODE":8.0986,"ARG_OF_PERICENTER":144.0716,"MEAN_ANOMALY":207.8422,"EPHEMERIS_TYPE":0,"CLASSIFICATION_TYPE":"U","NORAD_CAT_ID":43233,"ELEMENT_SET_NO":999,"REV_AT_EPOCH":8099,"BSTAR":0,"MEAN_MOTION_DOT":-2.7e-7,"MEAN_MOTION_DDOT":0},{"OBJECT_NAME":"O3B FM13","OBJECT_ID":"2018-024D","EPOCH":"2022-08-18T19:18:13.427712","MEAN_MOTION":5.00115017,"ECCENTRICITY":0.0003575,"INCLINATION":0.0495,"RA_OF_ASC_NODE":34.0652,"ARG_OF_PERICENTER":125.1042,"MEAN_ANOMALY":200.8433,"EPHEMERIS_TYPE":0,"CLASSIFICATION_TYPE":"U","NORAD_CAT_ID":43234,"ELEMENT_SET_NO":999,"REV_AT_EPOCH":8110,"BSTAR":0,"MEAN_MOTION_DOT":-2.7e-7,"MEAN_MOTION_DDOT":0},{"OBJECT_NAME":"SES-12","OBJECT_ID":"2018-049A","EPOCH":"2022-08-19T01:05:42.545184","MEAN_MOTION":1.0027148,"ECCENTRICITY":0.0001422,"INCLINATION":0.0151,"RA_OF_ASC_NODE":65.462,"ARG_OF_PERICENTER":172.3701,"MEAN_ANOMALY":200.9562,"EPHEMERIS_TYPE":0,"CLASSIFICATION_TYPE":"U","NORAD_CAT_ID":43488,"ELEMENT_SET_NO":999,"REV_AT_EPOCH":1539,"BSTAR":0,"MEAN_MOTION_DOT":-2.76e-6,"MEAN_MOTION_DDOT":0},{"OBJECT_NAME":"O3B FM20","OBJECT_ID":"2019-020A","EPOCH":"2022-08-17T23:28:17.668992","MEAN_MOTION":5.00115447,"ECCENTRICITY":0.0002937,"INCLINATION":0.0496,"RA_OF_ASC_NODE":7.5465,"ARG_OF_PERICENTER":149.1228,"MEAN_ANOMALY":203.3418,"EPHEMERIS_TYPE":0,"CLASSIFICATION_TYPE":"U","NORAD_CAT_ID":44112,"ELEMENT_SET_NO":999,"REV_AT_EPOCH":6157,"BSTAR":0,"MEAN_MOTION_DOT":-2.7e-7,"MEAN_MOTION_DDOT":0},{"OBJECT_NAME":"O3B FM19","OBJECT_ID":"2019-020B","EPOCH":"2022-08-18T09:42:32.194656","MEAN_MOTION":5.00115008,"ECCENTRICITY":0.0001772,"INCLINATION":0.0589,"RA_OF_ASC_NODE":20.9466,"ARG_OF_PERICENTER":135.1655,"MEAN_ANOMALY":203.8941,"EPHEMERIS_TYPE":0,"CLASSIFICATION_TYPE":"U","NORAD_CAT_ID":44113,"ELEMENT_SET_NO":999,"REV_AT_EPOCH":6146,"BSTAR":0,"MEAN_MOTION_DOT":-2.7e-7,"MEAN_MOTION_DDOT":0},{"OBJECT_NAME":"O3B FM17","OBJECT_ID":"2019-020C","EPOCH":"2022-08-18T06:50:40.295040","MEAN_MOTION":5.00115593,"ECCENTRICITY":0.0003001,"INCLINATION":0.0413,"RA_OF_ASC_NODE":344.407,"ARG_OF_PERICENTER":166.3303,"MEAN_ANOMALY":209.2774,"EPHEMERIS_TYPE":0,"CLASSIFICATION_TYPE":"U","NORAD_CAT_ID":44114,"ELEMENT_SET_NO":999,"REV_AT_EPOCH":6154,"BSTAR":0,"MEAN_MOTION_DOT":-2.7e-7,"MEAN_MOTION_DDOT":0},{"OBJECT_NAME":"O3B FM18","OBJECT_ID":"2019-020D","EPOCH":"2022-08-18T15:09:21.619872","MEAN_MOTION":5.00115768,"ECCENTRICITY":0.0002869,"INCLINATION":0.0498,"RA_OF_ASC_NODE":7.9763,"ARG_OF_PERICENTER":139.644,"MEAN_ANOMALY":212.3953,"EPHEMERIS_TYPE":0,"CLASSIFICATION_TYPE":"U","NORAD_CAT_ID":44115,"ELEMENT_SET_NO":999,"REV_AT_EPOCH":6168,"BSTAR":0,"MEAN_MOTION_DOT":-2.7e-7,"MEAN_MOTION_DDOT":0},{"OBJECT_NAME":"SES-17","OBJECT_ID":"2021-095A","EPOCH":"2022-08-18T20:13:40.179360","MEAN_MOTION":1.00270934,"ECCENTRICITY":0.0001052,"INCLINATION":0.0134,"RA_OF_ASC_NODE":110.1189,"ARG_OF_PERICENTER":46.1876,"MEAN_ANOMALY":47.1766,"EPHEMERIS_TYPE":0,"CLASSIFICATION_TYPE":"U","NORAD_CAT_ID":49332,"ELEMENT_SET_NO":999,"REV_AT_EPOCH":382,"BSTAR":0,"MEAN_MOTION_DOT":-2.79e-6,"MEAN_MOTION_DDOT":0},{"OBJECT_NAME":"SES-22","OBJECT_ID":"2022-071A","EPOCH":"2022-08-18T15:07:42.539808","MEAN_MOTION":1.00272091,"ECCENTRICITY":0.0002244,"INCLINATION":0.0446,"RA_OF_ASC_NODE":281.1689,"ARG_OF_PERICENTER":246.4827,"MEAN_ANOMALY":251.2203,"EPHEMERIS_TYPE":0,"CLASSIFICATION_TYPE":"U","NORAD_CAT_ID":52933,"ELEMENT_SET_NO":999,"REV_AT_EPOCH":52,"BSTAR":0,"MEAN_MOTION_DOT":8.1e-7,"MEAN_MOTION_DDOT":0}]